{
  "norad_id": 37168,
  "name": "SBSS (USA 216)",
  "history": [
    {
      "epoch": "2026-04-16T21:28:48.602208Z",
      "apogee_km": 575.0358572788491,
      "perigee_km": 460.322575357156,
      "latitude_deg": 64.06044997366374,
      "longitude_deg": 167.77811100844124,
      "height_km": 472.1177016543839,
      "semi_major_axis_km": 6895.816216318002,
      "eccentricity": 0.0083176,
      "inclination_deg": 97.7417,
      "raan_deg": 351.1535,
      "arg_perigee_deg": 55.6646,
      "mean_anomaly_deg": 9.247,
      "mean_motion_rev_day": 15.16087421
    },
    {
      "epoch": "2026-04-18T21:16:44.583168Z",
      "apogee_km": 574.9138281755795,
      "perigee_km": 460.3694285356896,
      "latitude_deg": 50.356701496076056,
      "longitude_deg": 16.389839260545365,
      "height_km": 515.5100130233174,
      "semi_major_axis_km": 6895.778628355634,
      "eccentricity": 0.0083054,
      "inclination_deg": 97.741,
      "raan_deg": 353.1844,
      "arg_perigee_deg": 48.9172,
      "mean_anomaly_deg": 79.2557,
      "mean_motion_rev_day": 15.16099817
    },
    {
      "epoch": "2026-04-19T21:02:30.266880Z",
      "apogee_km": 574.8343292889476,
      "perigee_km": 460.4047659861408,
      "latitude_deg": 49.77151174568699,
      "longitude_deg": 19.7880960562852,
      "height_km": 519.2705575274886,
      "semi_major_axis_km": 6895.756547637544,
      "eccentricity": 0.0082971,
      "inclination_deg": 97.7406,
      "raan_deg": 354.1939,
      "arg_perigee_deg": 45.5581,
      "mean_anomaly_deg": 83.2045,
      "mean_motion_rev_day": 15.16107099
    },
    {
      "epoch": "2026-04-20T12:49:55.282368Z",
      "apogee_km": 574.7918157652775,
      "perigee_km": 460.43134218186333,
      "latitude_deg": 60.77373332369163,
      "longitude_deg": 147.74218551680676,
      "height_km": 512.8169267790054,
      "semi_major_axis_km": 6895.74857897357,
      "eccentricity": 0.0082921,
      "inclination_deg": 97.7404,
      "raan_deg": 354.8647,
      "arg_perigee_deg": 43.3128,
      "mean_anomaly_deg": 74.1445,
      "mean_motion_rev_day": 15.16109727
    },
    {
      "epoch": "2026-04-21T20:33:56.622240Z",
      "apogee_km": 574.6519074431726,
      "perigee_km": 460.50027294807387,
      "latitude_deg": 48.85131114109801,
      "longitude_deg": 26.698427744908614,
      "height_km": 526.6603882443179,
      "semi_major_axis_km": 6895.7130901956225,
      "eccentricity": 0.008277,
      "inclination_deg": 97.7401,
      "raan_deg": 356.2127,
      "arg_perigee_deg": 38.8273,
      "mean_anomaly_deg": 90.872,
      "mean_motion_rev_day": 15.16121431
    },
    {
      "epoch": "2026-04-22T20:19:19.587936Z",
      "apogee_km": 574.5768411645313,
      "perigee_km": 460.5317610123493,
      "latitude_deg": 49.604927409284464,
      "longitude_deg": 30.628065249859016,
      "height_km": 529.4043558251445,
      "semi_major_axis_km": 6895.69130108844,
      "eccentricity": 0.0082693,
      "inclination_deg": 97.74,
      "raan_deg": 357.2219,
      "arg_perigee_deg": 35.4498,
      "mean_anomaly_deg": 93.4829,
      "mean_motion_rev_day": 15.16128617
    },
    {
      "epoch": "2026-04-23T05:45:15.700320Z",
      "apogee_km": 574.5420549390656,
      "perigee_km": 460.5454192655852,
      "latitude_deg": 65.33493372130557,
      "longitude_deg": -102.86410026110832,
      "height_km": 517.9681296761843,
      "semi_major_axis_km": 6895.680737102325,
      "eccentricity": 0.0082658,
      "inclination_deg": 97.74,
      "raan_deg": 357.6226,
      "arg_perigee_deg": 34.1127,
      "mean_anomaly_deg": 78.5454,
      "mean_motion_rev_day": 15.16132101
    },
    {
      "epoch": "2026-04-24T21:25:47.361792Z",
      "apogee_km": 574.3796419847176,
      "perigee_km": 460.6223023578077,
      "latitude_deg": 48.58837874636462,
      "longitude_deg": 13.75755960421346,
      "height_km": 536.97971856034,
      "semi_major_axis_km": 6895.637972171262,
      "eccentricity": 0.0082485,
      "inclination_deg": 97.7403,
      "raan_deg": 359.308,
      "arg_perigee_deg": 28.4873,
      "mean_anomaly_deg": 101.504,
      "mean_motion_rev_day": 15.16146205
    },
    {
      "epoch": "2026-04-25T21:10:53.410368Z",
      "apogee_km": 574.2758820101308,
      "perigee_km": 460.66112747181614,
      "latitude_deg": 50.296177406091935,
      "longitude_deg": 18.06934952923653,
      "height_km": 538.8978209325927,
      "semi_major_axis_km": 6895.605504740973,
      "eccentricity": 0.0082382,
      "inclination_deg": 97.7404,
      "raan_deg": 0.3171,
      "arg_perigee_deg": 25.1183,
      "mean_anomaly_deg": 103.1358,
      "mean_motion_rev_day": 15.16156913
    },
    {
      "epoch": "2026-04-26T20:56:54.347136Z",
      "apogee_km": 574.1488947260705,
      "perigee_km": 460.7167709756741,
      "latitude_deg": 48.592211058046416,
      "longitude_deg": 21.047299783048384,
      "height_km": 543.3487627883344,
      "semi_major_axis_km": 6895.569832850872,
      "eccentricity": 0.008225,
      "inclination_deg": 97.7404,
      "raan_deg": 1.327,
      "arg_perigee_deg": 21.7189,
      "mean_anomaly_deg": 108.3007,
      "mean_motion_rev_day": 15.16168678
    },
    {
      "epoch": "2026-04-27T20:42:23.455872Z",
      "apogee_km": 574.0358522486185,
      "perigee_km": 460.7710836303395,
      "latitude_deg": 48.815047431544485,
      "longitude_deg": 24.779824002390352,
      "height_km": 546.2952409451226,
      "semi_major_axis_km": 6895.540467939479,
      "eccentricity": 0.0082129,
      "inclination_deg": 97.7404,
      "raan_deg": 2.3365,
      "arg_perigee_deg": 18.3166,
      "mean_anomaly_deg": 111.4951,
      "mean_motion_rev_day": 15.16178363
    },
    {
      "epoch": "2026-04-28T20:27:50.942016Z",
      "apogee_km": 573.9140847366325,
      "perigee_km": 460.82775485200546,
      "latitude_deg": 49.10443702168361,
      "longitude_deg": 28.540687019354817,
      "height_km": 549.1114647060632,
      "semi_major_axis_km": 6895.507919794319,
      "eccentricity": 0.0082,
      "inclination_deg": 97.7404,
      "raan_deg": 3.3457,
      "arg_perigee_deg": 14.9212,
      "mean_anomaly_deg": 114.6168,
      "mean_motion_rev_day": 15.16189098
    },
    {
      "epoch": "2026-04-29T20:12:31.459392Z",
      "apogee_km": 573.8208418310605,
      "perigee_km": 460.85776989316673,
      "latitude_deg": 52.23751691788422,
      "longitude_deg": 33.476223084716146,
      "height_km": 549.9285228803082,
      "semi_major_axis_km": 6895.476305862114,
      "eccentricity": 0.0081911,
      "inclination_deg": 97.7401,
      "raan_deg": 4.355,
      "arg_perigee_deg": 11.5397,
      "mean_anomaly_deg": 114.7959,
      "mean_motion_rev_day": 15.16199525
    },
    {
      "epoch": "2026-04-30T13:28:42.417984Z",
      "apogee_km": 573.74512953664,
      "perigee_km": 460.89135089318825,
      "latitude_deg": 81.92889521272816,
      "longitude_deg": -163.1962612298767,
      "height_km": 523.8522202391813,
      "semi_major_axis_km": 6895.455240214914,
      "eccentricity": 0.0081832,
      "inclination_deg": 97.7399,
      "raan_deg": 5.0888,
      "arg_perigee_deg": 9.0714,
      "mean_anomaly_deg": 82.4414,
      "mean_motion_rev_day": 15.16206473
    }
  ]
}